[{"OBJECT_NAME":"VSP RF A1","OBJECT_ID":"2024-043AP","EPOCH":"2026-03-07T00:44:15.345024","MEAN_MOTION":15.26179596,"ECCENTRICITY":0.00094313,"INCLINATION":97.5247,"RA_OF_ASC_NODE":201.5379,"ARG_OF_PERICENTER":234.6315,"MEAN_ANOMALY":125.4042,"EPHEMERIS_TYPE":0,"CLASSIFICATION_TYPE":"U","NORAD_CAT_ID":59135,"ELEMENT_SET_NO":999,"REV_AT_EPOCH":11140,"BSTAR":2.5198753e-5,"MEAN_MOTION_DOT":5.77e-6,"MEAN_MOTION_DDOT":0},{"OBJECT_NAME":"STARLINK-32644","OBJECT_ID":"2024-224N","EPOCH":"2026-03-09T06:33:32.739840","MEAN_MOTION":15.27569015,"ECCENTRICITY":6.11e-5,"INCLINATION":42.9931,"RA_OF_ASC_NODE":160.6816,"ARG_OF_PERICENTER":345.6563,"MEAN_ANOMALY":14.4271,"EPHEMERIS_TYPE":0,"CLASSIFICATION_TYPE":"U","NORAD_CAT_ID":62151,"ELEMENT_SET_NO":999,"REV_AT_EPOCH":7241,"BSTAR":0.0012999957,"MEAN_MOTION_DOT":0.00035672,"MEAN_MOTION_DDOT":0}]
